[{"OBJECT_NAME":"CELESTIS-17 & SHERPA-FX1","OBJECT_ID":"2021-006CB","EPOCH":"2026-03-09T15:26:05.078112","MEAN_MOTION":15.30994801,"ECCENTRICITY":0.000663,"INCLINATION":97.2397,"RA_OF_ASC_NODE":112.1052,"ARG_OF_PERICENTER":178.1385,"MEAN_ANOMALY":181.9882,"EPHEMERIS_TYPE":0,"CLASSIFICATION_TYPE":"U","NORAD_CAT_ID":47486,"ELEMENT_SET_NO":999,"REV_AT_EPOCH":28406,"BSTAR":0.00024301,"MEAN_MOTION_DOT":7.207e-5,"MEAN_MOTION_DDOT":0},{"OBJECT_NAME":"STARLINK-32430","OBJECT_ID":"2024-229R","EPOCH":"2026-03-09T21:55:31.312704","MEAN_MOTION":15.27605443,"ECCENTRICITY":8.03e-5,"INCLINATION":42.9974,"RA_OF_ASC_NODE":266.1651,"ARG_OF_PERICENTER":311.9352,"MEAN_ANOMALY":48.1431,"EPHEMERIS_TYPE":0,"CLASSIFICATION_TYPE":"U","NORAD_CAT_ID":62207,"ELEMENT_SET_NO":999,"REV_AT_EPOCH":7063,"BSTAR":0.0014626161,"MEAN_MOTION_DOT":0.00040237,"MEAN_MOTION_DDOT":0}]
